*******************************************************************************
 Revised: April 22, 2021              Neptune                               899
 
 PHYSICAL DATA (update 2021-May-03):
  Mass x10^24 (kg)      = 102.409         Density (g/cm^3)       =  1.638
  Equat. radius (1 bar) = 24766+-15 km    Volume, 10^10 km^3     = 6254     
  Vol. mean radius (km) = 24624+-21       Polar radius (km)      = 24342+-30
  Geometric Albedo      = 0.41            Flattening             =  0.0171
  Sid. rot. period (III)= 16.11+-0.01 hr  Sid. rot. rate (rad/s) =  0.000108338 
  Mean solar day, h     =~16.11 h         
  GM (km^3/s^2)         = 6835099.97      GM 1-sigma (km^3/s^2)  = +-10 
  Equ. grav, ge (m/s^2) = 11.15           Pol. grav, gp (m/s^2)  = 11.41+-0.03
  Visual magnitude V(1,0)= -6.87
  Vis. mag. (opposition)=  +7.84          Obliquity to orbit     = 28.32 deg
  Sidereal orbit period = 164.788501027 y Sidereal orbit period  = 60189 d
  Mean daily motion     = 0.006020076dg/d Mean orbit velocity    =  5.43 km/s 
  Atmos. temp. (1 bar)  =  72+-2 K        Escape speed (1 bar)  =  23.5 km/s     
  Aroche(ice)/Rp        =  2.98           Hill's sphere rad., Rp = 4700
                                 Perihelion  Aphelion    Mean
  Solar Constant (W/m^2)         1.54        1.49        1.51
  Maximum Planetary IR (W/m^2)   0.52        0.52        0.52
  Minimum Planetary IR (W/m^2)   0.52        0.52        0.52
*******************************************************************************


*******************************************************************************
Ephemeris / WWW_USER Fri Jan 28 06:33:27 2022 Pasadena, USA      / Horizons
*******************************************************************************
Target body name: Neptune (899)                   {source: nep097}
Center body name: Sun (10)                        {source: DE441}
Center-site name: BODY CENTER
*******************************************************************************
Start time      : A.D. 1850-Jan-28 00:00:00.0000 TDB
Stop  time      : A.D. 2022-Jan-28 00:00:00.0000 TDB
Step-size       : 14400 minutes
*******************************************************************************
Center geodetic : 0.00000000,0.00000000,0.0000000 {E-lon(deg),Lat(deg),Alt(km)}
Center cylindric: 0.00000000,0.00000000,0.0000000 {E-lon(deg),Dxy(km),Dz(km)}
Center radii    : 696000.0 x 696000.0 x 696000.0 k{Equator, meridian, pole}    
Output units    : KM-D
Output type     : GEOMETRIC cartesian states
Output format   : 2 (position and velocity)
Reference frame : Ecliptic of J2000.0
*******************************************************************************
            JDTDB,            Calendar Date (TDB),                      X,                      Y,                      Z,                     VX,                     VY,                     VZ,
**************************************************************************************************************************************************************************************************
$$SOE
2427935.500000000, A.D. 1935-May-13 00:00:00.0000, -4.352541543415132E+09,  1.205364376391221E+09,  7.543809177738589E+07, -1.270489274934936E+05, -4.500677083567330E+05,  1.216885281963097E+04,
2427945.500000000, A.D. 1935-May-23 00:00:00.0000, -4.353810477957209E+09,  1.200862935601587E+09,  7.555985409812671E+07, -1.266649957708836E+05, -4.501407464180866E+05,  1.223173106120553E+04,
2427955.500000000, A.D. 1935-Jun-02 00:00:00.0000, -4.355074433173182E+09,  1.196360391748406E+09,  7.568153099157923E+07, -1.262318316341594E+05, -4.503521400725452E+05,  1.215192068755194E+04,
2427965.500000000, A.D. 1935-Jun-12 00:00:00.0000, -4.356333693112730E+09,  1.191856801109250E+09,  7.580325052985454E+07, -1.256289299626643E+05, -4.504543768528720E+05,  1.211462509542411E+04,
2427975.500000000, A.D. 1935-Jun-22 00:00:00.0000, -4.357588287506565E+09,  1.187351943425971E+09,  7.592480949919230E+07, -1.251782809265663E+05, -4.504799243254880E+05,  1.219472528762084E+04,
2427985.500000000, A.D. 1935-Jul-02 00:00:00.0000, -4.358837929248534E+09,  1.182845928852705E+09,  7.604620233543342E+07, -1.248080028662216E+05, -4.506572857869383E+05,  1.216217583679961E+04,
2427995.500000000, A.D. 1935-Jul-12 00:00:00.0000, -4.360082779524342E+09,  1.178338940996476E+09,  7.616763648095328E+07, -1.242394726404888E+05, -4.508175569189505E+05,  1.207984093087839E+04,
2428005.500000000, A.D. 1935-Jul-22 00:00:00.0000, -4.361323051472097E+09,  1.173830783076591E+09,  7.628899415854263E+07, -1.237116547049027E+05, -4.508341375667398E+05,  1.214010063280527E+04,
2428015.500000000, A.D. 1935-Aug-01 00:00:00.0000, -4.362558480043463E+09,  1.169321404111815E+09,  7.641013896708292E+07, -1.233597872776840E+05, -4.509527645941793E+05,  1.216477337864829E+04,
2428025.500000000, A.D. 1935-Aug-11 00:00:00.0000, -4.363789029366910E+09,  1.164811038825107E+09,  7.653127015957654E+07, -1.228631364611574E+05, -4.511532610637668E+05,  1.206804191652892E+04,
2428035.500000000, A.D. 1935-Aug-21 00:00:00.0000, -4.365014998766780E+09,  1.160299604492973E+09,  7.665240441790551E+07, -1.222782248588032E+05, -4.512019861050263E+05,  1.207948275813683E+04,
2428045.500000000, A.D. 1935-Aug-31 00:00:00.0000, -4.366236255161468E+09,  1.155786924278634E+09,  7.677333234550798E+07, -1.218918750795103E+05, -4.512589429305049E+05,  1.214749669842574E+04,
2428055.500000000, A.D. 1935-Sep-10 00:00:00.0000, -4.367452590969025E+09,  1.151273196658165E+09,  7.689416320107710E+07, -1.214762867414224E+05, -4.514620686507209E+05,  1.207346589474614E+04,
2428065.500000000, A.D. 1935-Sep-20 00:00:00.0000, -4.368664278308008E+09,  1.146758484857987E+09,  7.701504179584700E+07, -1.208811807637804E+05, -4.515693477357138E+05,  1.202797032848432E+04,
2428075.500000000, A.D. 1935-Sep-30 00:00:00.0000, -4.369871374066886E+09,  1.142242552070240E+09,  7.713577261588401E+07, -1.204240180490247E+05, -4.515882134555370E+05,  1.210751425916880E+04,
2428085.500000000, A.D. 1935-Oct-10 00:00:00.0000, -4.371073580101321E+09,  1.137725473128395E+09,  7.725632801299793E+07, -1.200645280335263E+05, -4.517563840590487E+05,  1.208371252876435E+04,
2428095.500000000, A.D. 1935-Oct-20 00:00:00.0000, -4.372271021951609E+09,  1.133207433587971E+09,  7.737691981375748E+07, -1.195088722044607E+05, -4.519242093260920E+05,  1.199678140249280E+04,
2428105.500000000, A.D. 1935-Oct-30 00:00:00.0000, -4.373463920065479E+09,  1.128688237634027E+09,  7.749744782358027E+07, -1.189723087659642E+05, -4.519438529277068E+05,  1.205093635939492E+04,
2428115.500000000, A.D. 1935-Nov-09 00:00:00.0000, -4.374652003342996E+09,  1.124167808343919E+09,  7.761775830977565E+07, -1.186185468795689E+05, -4.520529456822135E+05,  1.208357496458376E+04,
2428125.500000000, A.D. 1935-Nov-19 00:00:00.0000, -4.375835192350713E+09,  1.119646387347611E+09,  7.773804156968898E+07, -1.181337069535576E+05, -4.522560551957806E+05,  1.198779351610909E+04,
2428135.500000000, A.D. 1935-Nov-29 00:00:00.0000, -4.377013781686827E+09,  1.115123916896379E+09,  7.785833586383718E+07, -1.175420892805198E+05, -4.523117840274482E+05,  1.199026536175948E+04,
2428145.500000000, A.D. 1935-Dec-09 00:00:00.0000, -4.378187654422936E+09,  1.110600209339287E+09,  7.797842732448149E+07, -1.171436928653318E+05, -4.523597172678841E+05,  1.206222311872687E+04,
2428155.500000000, A.D. 1935-Dec-19 00:00:00.0000, -4.379356571497830E+09,  1.106075456836099E+09,  7.809840551947665E+07, -1.167349616003016E+05, -4.525575880303501E+05,  1.199419590138827E+04,
2428165.500000000, A.D. 1935-Dec-29 00:00:00.0000, -4.380520781064950E+09,  1.101549755448647E+09,  7.821843047524935E+07, -1.161381572684844E+05, -4.526711198159420E+05,  1.194043067154845E+04,
2428175.500000000, A.D. 1936-Jan-08 00:00:00.0000, -4.381680364604421E+09,  1.097022881134714E+09,  7.833831663318110E+07, -1.156637394473149E+05, -4.526827575287627E+05,  1.201810527222062E+04,
2428185.500000000, A.D. 1936-Jan-18 00:00:00.0000, -4.382835020344027E+09,  1.092494897975611E+09,  7.845801495745188E+07, -1.153039270061882E+05, -4.528373738569220E+05,  1.200281660048622E+04,
2428195.500000000, A.D. 1936-Jan-28 00:00:00.0000, -4.383984844214339E+09,  1.087966014958690E+09,  7.857773990407789E+07, -1.147527847917001E+05, -4.530059411212673E+05,  1.191173002433925E+04,
2428205.500000000, A.D. 1936-Feb-07 00:00:00.0000, -4.385130074672167E+09,  1.083436067277256E+09,  7.869741121025139E+07, -1.142011445209592E+05, -4.530203809929217E+05,  1.195900683346929E+04,
2428215.500000000, A.D. 1936-Feb-17 00:00:00.0000, -4.386270468306716E+09,  1.078904974134069E+09,  7.881686192305988E+07, -1.138408591635215E+05, -4.531098928635224E+05,  1.199927718588091E+04,
2428225.500000000, A.D. 1936-Feb-27 00:00:00.0000, -4.387405932573862E+09,  1.074372982906828E+09,  7.893627249744904E+07, -1.133668613358278E+05, -4.533047974537957E+05,  1.190547309586464E+04,
2428235.500000000, A.D. 1936-Mar-08 00:00:00.0000, -4.388536776086576E+09,  1.069840060990882E+09,  7.905570298203117E+07, -1.127709484000872E+05, -4.533581571991255E+05,  1.189910027455131E+04,
2428245.500000000, A.D. 1936-Mar-18 00:00:00.0000, -4.389662923253459E+09,  1.065306009104289E+09,  7.917493828039837E+07, -1.123634344222743E+05, -4.533883729207591E+05,  1.197454407149940E+04,
2428255.500000000, A.D. 1936-Mar-28 00:00:00.0000, -4.390784129754807E+09,  1.060771001338194E+09,  7.929404829500467E+07, -1.119668120816545E+05, -4.535721036821259E+05,  1.191358590557833E+04,
2428265.500000000, A.D. 1936-Apr-07 00:00:00.0000, -4.391900637535209E+09,  1.056235149037788E+09,  7.941320724106508E+07, -1.113772235882271E+05, -4.536857859520633E+05,  1.185249378749316E+04,
2428275.500000000, A.D. 1936-Apr-17 00:00:00.0000, -4.393012565833961E+09,  1.051698220760508E+09,  7.953224144787109E+07, -1.108941412328026E+05, -4.536875674077577E+05,  1.192785446559013E+04,
